INTELSAT 23 (IS-23)     
1 38867U 12057A   26199.80253007 -.00000291  00000+0  00000+0 0  9990
2 38867   0.0118 352.1056 0000281 137.1444  43.2224  1.00277457 50275
BEIDOU-2 G6             
1 38953U 12059A   26199.87662771 -.00000184  00000+0  00000+0 0  9998
2 38953   4.5000  73.1804 0008827 327.5469 295.5388  1.00273161 50223
LUCH-5B                 
1 38977U 12061A   26199.33403083 -.00000149  00000+0  00000+0 0  9998
2 38977  10.5496  49.5701 0003835 147.0481 203.4789  1.00270293 49911
YAMAL 300K              
1 38978U 12061B   26200.08625087  .00000000  00000+0  00000+0 0  9999
2 38978   0.0115  73.3425 0000536  78.3879 359.1692  1.00269663 49959
STAR ONE C3             
1 38991U 12062A   26199.62891936 -.00000256  00000+0  00000+0 0  9994
2 38991   0.0190  54.8060 0002269  69.3322 323.7105  1.00272662 50089
EUTELSAT 21B            
1 38992U 12062B   26199.91836433  .00000124  00000+0  00000+0 0  9991
2 38992   0.0686 342.3143 0003239 142.6505 163.9215  1.00272824 50146
ECHOSTAR 16             
1 39008U 12065A   26199.81364264 -.00000288  00000+0  00000+0 0  9992
2 39008   0.0199  54.9121 0002106  60.1750  52.9311  1.00271653 49965
ZHONGXING-12            
1 39017U 12067A   26200.12316785 -.00000212  00000+0  00000+0 0  9993
2 39017   0.0431  96.0193 0002821  20.9306 311.8013  1.00271506 49823
EUTELSAT 70B            
1 39020U 12069A   26199.95979604 -.00000049  00000+0  00000+0 0  9990
2 39020   0.0618   9.1974 0003590 108.1700 235.4057  1.00271713 49826
YAMAL 402               
1 39022U 12070A   26199.94730383  .00000079  00000+0  00000+0 0  9994
2 39022   1.3443  83.7641 0003723  27.2067 221.6859  1.00271729 49714
SKYNET 5D               
1 39034U 12075A   26199.94477419  .00000093  00000+0  00000+0 0  9996
2 39034   0.0684   6.0023 0003568 119.8550 203.7379  1.00272079 49474
MEXSAT 3                
1 39035U 12075B   26199.58864397 -.00000033  00000+0  00000+0 0  9997
2 39035   0.0183  63.4933 0001118  47.6302 282.3712  1.00270957  7367
TDRS 11                 
1 39070U 13004A   26199.73042380  .00000072  00000+0  00000+0 0  9998
2 39070   3.5667  31.7466 0005464  29.8026 323.7807  1.00264445 47008
AMAZONAS 3              
1 39078U 13006A   26199.81364264 -.00000289  00000+0  00000+0 0  9996
2 39078   0.0327 232.9285 0003449 278.7844  16.8054  1.00271341 45239
AZERSPACE 1             
1 39079U 13006B   26199.93850757  .00000127  00000+0  00000+0 0  9997
2 39079   0.0206  51.9040 0001927  97.8461 170.8184  1.00272298 49127
SBIRS GEO-2 (USA 241)   
1 39120U 13011A   26199.54121198 -.00000295  00000+0  00000+0 0  9994
2 39120   4.5548  52.5028 0001963  59.6288 329.2500  1.00271719 48856
EUTELSAT 117 WEST A     
1 39122U 13012A   26199.58864397 -.00000020  00000+0  00000+0 0  9992
2 39122   0.0426 272.1290 0002802 204.2606 275.1008  1.00270969 48746
ANIK G1                 
1 39127U 13014A   26199.58308632 -.00000081  00000+0  00000+0 0  9991
2 39127   0.0404 239.5218 0001820 245.8688 273.5950  1.00271916 48565
ZHONGXING-11            
1 39157U 13020A   26200.00907154 -.00000296  00000+0  00000+0 0  9993
2 39157   0.0482 273.2918 0002187 164.1425 320.5147  1.00273771 48219
EUTELSAT 7B             
1 39163U 13022A   26199.78517021  .00000041  00000+0  00000+0 0  9991
2 39163   0.0669 345.4488 0003235  63.4406 177.3407  1.00270638 48263
WGS F5 (USA 243)        
1 39168U 13024A   26199.80253007  .00000000  00000+0  00000+0 0  9997
2 39168   0.0213  68.4957 0000072 107.1565 357.3679  1.00269292 47493
SES-6                   
1 39172U 13026A   26199.79697495 -.00000268  00000+0  00000+0 0  9992
2 39172   0.0174   2.0559 0002664  95.9164  85.0376  1.00272137 48047
IRNSS-1A                
1 39199U 13034A   26191.72043649  .00000047  00000+0  00000+0 0  9995
2 39199  35.7704  63.5328 0017567 183.4462 356.2994  1.00281941 47601
MUOS-2                  
1 39206U 13036A   26199.72773711 -.00000021  00000+0  00000+0 0  9997
2 39206   5.0562  45.5540 0052985 176.3821 148.5403  1.00272985 47505
ALPHASAT                
1 39215U 13038A   26199.48467549  .00000126  00000+0  00000+0 0  9996
2 39215   3.0000   1.2081 0002285 135.9866 358.4330  1.00271514 44333
INSAT-3D                
1 39216U 13038B   26199.71924374 -.00000346  00000+0  00000+0 0  9992
2 39216   2.0058  82.1476 0000957  46.6822 196.0951  1.00274452 47394
WGS F6 (USA 244)        
1 39222U 13041A   26199.73813716  .00000082  00000+0  00000+0 0  9998
2 39222   0.0189  52.1076 0000239  53.1931 321.7674  1.00271863 46373
ES'HAIL 1               
1 39233U 13044A   26199.92172288  .00000137  00000+0  00000+0 0  9997
2 39233   0.0477 356.4974 0002300 112.6891 184.8392  1.00270153 46948
GSAT-7                  
1 39234U 13044B   26199.84558538 -.00000083  00000+0  00000+0 0  9996
2 39234   0.1604  89.5123 0003079 175.2218  50.2705  1.00271932 45572
AMOS-4                  
1 39237U 13045A   26199.95531679  .00000002  00000+0  00000+0 0  9999
2 39237   0.0118 236.1103 0002063 211.2470 258.2982  1.00271368 47274
AEHF-3 (USA 246)        
1 39256U 13050A   26199.58973889  .00000020  00000+0  00000+0 0  9998
2 39256   5.3686  66.8936 0088572 187.7007 129.8227  1.00271943 45965
ASTRA 2E                
1 39285U 13056A   26199.92507419  .00000144  00000+0  00000+0 0  9993
2 39285   0.0707 318.9333 0002601 154.2952 184.9746  1.00270777 46730
